NESS                    
1 58020U 23155E   26068.76452457  .00019469  00000+0  74047-3 0  9996
2 58020  97.5941 152.6141 0006891 179.8776 180.2465 15.26794015133307
STARLINK-31322          
1 59168U 24044S   26068.11295028 -.00001245  00000+0 -35716-4 0  9992
2 59168  43.0060 110.6049 0001926 298.9548  61.1110 15.27567651113503
