[{"OBJECT_NAME":"NESS","OBJECT_ID":"2023-155E","EPOCH":"2026-03-09T18:20:54.923712","MEAN_MOTION":15.26794015,"ECCENTRICITY":0.00068914,"INCLINATION":97.5941,"RA_OF_ASC_NODE":152.6141,"ARG_OF_PERICENTER":179.8776,"MEAN_ANOMALY":180.2465,"EPHEMERIS_TYPE":0,"CLASSIFICATION_TYPE":"U","NORAD_CAT_ID":58020,"ELEMENT_SET_NO":999,"REV_AT_EPOCH":13330,"BSTAR":0.00074047066,"MEAN_MOTION_DOT":0.00019469,"MEAN_MOTION_DDOT":0},{"OBJECT_NAME":"STARLINK-31322","OBJECT_ID":"2024-044S","EPOCH":"2026-03-09T02:42:38.904192","MEAN_MOTION":15.27567651,"ECCENTRICITY":0.00019263,"INCLINATION":43.006,"RA_OF_ASC_NODE":110.6049,"ARG_OF_PERICENTER":298.9548,"MEAN_ANOMALY":61.111,"EPHEMERIS_TYPE":0,"CLASSIFICATION_TYPE":"U","NORAD_CAT_ID":59168,"ELEMENT_SET_NO":999,"REV_AT_EPOCH":11350,"BSTAR":-3.5716406e-5,"MEAN_MOTION_DOT":-1.245e-5,"MEAN_MOTION_DDOT":0}]
